{"type":"FeatureCollection","_note":"湖のデータ(上に水色で重ねる用)。出典: Natural Earth 1:10m Lakes (public domain)。いまは琵琶湖だけ(ab-126)","features":[{"type":"Feature","properties":{"name":"琵琶湖","pref":"滋賀県"},"geometry":{"type":"Polygon","coordinates":[[[136.22098,35.38504],[136.24894,35.3768],[136.27867,35.36473],[136.27661,35.33676],[136.25277,35.28407],[136.23982,35.27082],[136.16328,35.22579],[136.105,35.20547],[136.07792,35.19046],[136.06026,35.16456],[136.07851,35.15867],[136.0738,35.14925],[136.05643,35.14042],[136.03641,35.13659],[136.01845,35.13542],[135.99991,35.13188],[135.98313,35.12541],[135.97077,35.11599],[135.96459,35.12335],[135.95723,35.10363],[135.95311,35.07831],[135.94516,35.05682],[135.92661,35.04769],[135.91925,35.03887],[135.91925,34.9953],[135.90954,34.97881],[135.89836,34.97999],[135.88481,34.99029],[135.87333,35.0059],[135.86833,35.02356],[135.87363,35.03887],[135.92161,35.1051],[135.92809,35.11923],[135.93221,35.17133],[135.93692,35.18634],[135.95723,35.21901],[136.01639,35.2667],[136.02611,35.2773],[136.03406,35.29231],[136.06791,35.30762],[136.07438,35.32145],[136.04289,35.38651],[136.04318,35.39769],[136.05142,35.41094],[136.05849,35.43655],[136.07085,35.45421],[136.09499,35.4442],[136.11354,35.47658],[136.12237,35.48659],[136.12649,35.47158],[136.12825,35.45568],[136.13473,35.44332],[136.15268,35.43802],[136.1574,35.44538],[136.16034,35.46245],[136.16328,35.49954],[136.17771,35.49513],[136.18977,35.48689],[136.19684,35.47482],[136.19743,35.45863],[136.19743,35.46599],[136.1989,35.43508],[136.20538,35.40623],[136.22098,35.38504]]]}}]}